start=new Date('2022-10-17T00:00:00.000Z').valueOf();
sats=[{"DECAY_DATE":null,"LAUNCH_DATE":"2020-01-07","MEAN_MOTION_DOT":"-0.00000873","MEAN_MOTION":"15.06401252","PERIAPSIS":"546.244","OBJECT_TYPE":"PAYLOAD","EPHEMERIS_TYPE":"0","TLE_LINE2":"2 44922  53.0547 152.5093 0001395 106.6332 253.4810 15.06401252152974","BSTAR":"-0.00003972300000","ARG_OF_PERICENTER":"106.6332","EPOCH":"2022-10-16T20:14:32.358912","RA_OF_ASC_NODE":"152.5093","GP_ID":"215343714","OBJECT_NAME":"STARLINK-1104","PERIOD":"95.592","INCLINATION":"53.0547","OBJECT_ID":"2020-001J","TIME_SYSTEM":"UTC","MEAN_MOTION_DDOT":"0.0000000000000","MEAN_ANOMALY":"253.4810","REF_FRAME":"TEME","RCS_SIZE":"LARGE","REV_AT_EPOCH":"15297","COUNTRY_CODE":"US","CENTER_NAME":"EARTH","MEAN_ELEMENT_THEORY":"SGP4","APOAPSIS":"548.176","ECCENTRICITY":"0.00013950","CLASSIFICATION_TYPE":"U","SITE":"AFETR","SEMIMAJOR_AXIS":"6925.345","TLE_LINE1":"1 44922U 20001J   22289.84343008 -.00000873  00000-0 -39723-4 0  9995","FILE":"3617955","NORAD_CAT_ID":"44922","ELEMENT_SET_NO":"999"},{"EPHEMERIS_TYPE":"0","PERIAPSIS":"546.241","OBJECT_TYPE":"PAYLOAD","TLE_LINE2":"2 44923  53.0545 152.6932 0001449 105.4880 254.6269 15.06389980152964","LAUNCH_DATE":"2020-01-07","DECAY_DATE":null,"MEAN_MOTION":"15.06389980","MEAN_MOTION_DOT":"-0.00001840","PERIOD":"95.593","OBJECT_NAME":"STARLINK-1106","GP_ID":"215343964","INCLINATION":"53.0545","EPOCH":"2022-10-16T19:16:10.198848","ARG_OF_PERICENTER":"105.4880","BSTAR":"-0.00010472000000","RA_OF_ASC_NODE":"152.6932","COUNTRY_CODE":"US","REV_AT_EPOCH":"15296","CENTER_NAME":"EARTH","TIME_SYSTEM":"UTC","OBJECT_ID":"2020-001K","REF_FRAME":"TEME","RCS_SIZE":"LARGE","MEAN_ANOMALY":"254.6269","MEAN_MOTION_DDOT":"0.0000000000000","SITE":"AFETR","SEMIMAJOR_AXIS":"6925.379","CLASSIFICATION_TYPE":"U","NORAD_CAT_ID":"44923","ELEMENT_SET_NO":"999","FILE":"3617955","TLE_LINE1":"1 44923U 20001K   22289.80289582 -.00001840  00000-0 -10472-3 0  9992","MEAN_ELEMENT_THEORY":"SGP4","APOAPSIS":"548.248","ECCENTRICITY":"0.00014490"},{"RCS_SIZE":"LARGE","REF_FRAME":"TEME","MEAN_MOTION_DDOT":"0.0000000000000","MEAN_ANOMALY":"253.7145","TIME_SYSTEM":"UTC","OBJECT_ID":"2020-001L","CENTER_NAME":"EARTH","COUNTRY_CODE":"US","REV_AT_EPOCH":"15296","ECCENTRICITY":"0.00011470","APOAPSIS":"548.019","MEAN_ELEMENT_THEORY":"SGP4","ELEMENT_SET_NO":"999","NORAD_CAT_ID":"44924","TLE_LINE1":"1 44924U 20001L   22289.79181922  .00000407  00000-0  46213-4 0  9999","FILE":"3617955","SITE":"AFETR","SEMIMAJOR_AXIS":"6925.360","CLASSIFICATION_TYPE":"U","MEAN_MOTION":"15.06396296","MEAN_MOTION_DOT":"0.00000407","LAUNCH_DATE":"2020-01-07","DECAY_DATE":null,"TLE_LINE2":"2 44924  53.0539 152.7500 0001147 106.3971 253.7145 15.06396296152967","EPHEMERIS_TYPE":"0","PERIAPSIS":"546.431","OBJECT_TYPE":"PAYLOAD","RA_OF_ASC_NODE":"152.7500","EPOCH":"2022-10-16T19:00:13.180608","ARG_OF_PERICENTER":"106.3971","BSTAR":"0.00004621300000","INCLINATION":"53.0539","PERIOD":"95.592","GP_ID":"215344216","OBJECT_NAME":"STARLINK-1111"},{"CENTER_NAME":"EARTH","REV_AT_EPOCH":"15296","COUNTRY_CODE":"US","MEAN_MOTION_DDOT":"0.0000000000000","MEAN_ANOMALY":"243.3353","RCS_SIZE":"LARGE","REF_FRAME":"TEME","OBJECT_ID":"2020-001M","TIME_SYSTEM":"UTC","TLE_LINE1":"1 44925U 20001M   22289.80657542 -.00000191  00000-0  60516-5 0  9992","FILE":"3617955","ELEMENT_SET_NO":"999","NORAD_CAT_ID":"44925","CLASSIFICATION_TYPE":"U","SITE":"AFETR","SEMIMAJOR_AXIS":"6925.363","APOAPSIS":"547.861","ECCENTRICITY":"0.00009150","MEAN_ELEMENT_THEORY":"SGP4","TLE_LINE2":"2 44925  53.0546 152.6673 0000915 116.7730 243.3353 15.06395346152967","OBJECT_TYPE":"PAYLOAD","PERIAPSIS":"546.594","EPHEMERIS_TYPE":"0","MEAN_MOTION_DOT":"-0.00000191","MEAN_MOTION":"15.06395346","DECAY_DATE":null,"LAUNCH_DATE":"2020-01-07","INCLINATION":"53.0546","OBJECT_NAME":"STARLINK-1112","GP_ID":"215344465","PERIOD":"95.592","RA_OF_ASC_NODE":"152.6673","BSTAR":"0.00000605160000","ARG_OF_PERICENTER":"116.7730","EPOCH":"2022-10-16T19:21:28.116288"},{"GP_ID":"215343215","OBJECT_NAME":"STARLINK-1113","PERIOD":"95.644","INCLINATION":"53.0007","BSTAR":"-0.00006469600000","ARG_OF_PERICENTER":"107.2908","EPOCH":"2022-10-16T19:32:22.379424","RA_OF_ASC_NODE":"152.6534","OBJECT_TYPE":"PAYLOAD","PERIAPSIS":"548.575","EPHEMERIS_TYPE":"0","TLE_LINE2":"2 44926  53.0007 152.6534 0001661 107.2908 252.8262 15.05580558153669","DECAY_DATE":null,"LAUNCH_DATE":"2020-01-07","MEAN_MOTION_DOT":"-0.00001222","MEAN_MOTION":"15.05580558","CLASSIFICATION_TYPE":"U","SITE":"AFETR","SEMIMAJOR_AXIS":"6927.861","FILE":"3617955","TLE_LINE1":"1 44926U 20001N   22289.81414791 -.00001222  00000-0 -64696-4 0  9990","ELEMENT_SET_NO":"999","NORAD_CAT_ID":"44926","MEAN_ELEMENT_THEORY":"SGP4","APOAPSIS":"550.877","ECCENTRICITY":"0.00016610","REV_AT_EPOCH":"15366","COUNTRY_CODE":"US","CENTER_NAME":"EARTH","OBJECT_ID":"2020-001N","TIME_SYSTEM":"UTC","MEAN_ANOMALY":"252.8262","MEAN_MOTION_DDOT":"0.0000000000000","REF_FRAME":"TEME","RCS_SIZE":"LARGE"},{"EPOCH":"2022-10-16T19:37:23.342592","ARG_OF_PERICENTER":"103.3048","BSTAR":"0.00009616900000","RA_OF_ASC_NODE":"152.6125","PERIOD":"95.592","OBJECT_NAME":"STARLINK-1114","GP_ID":"215343465","INCLINATION":"53.0540","LAUNCH_DATE":"2020-01-07","DECAY_DATE":null,"MEAN_MOTION":"15.06403440","MEAN_MOTION_DOT":"0.00001151","EPHEMERIS_TYPE":"0","PERIAPSIS":"546.253","OBJECT_TYPE":"PAYLOAD","TLE_LINE2":"2 44927  53.0540 152.6125 0001372 103.3048 256.8094 15.06403440152974","MEAN_ELEMENT_THEORY":"SGP4","ECCENTRICITY":"0.00013720","APOAPSIS":"548.153","SEMIMAJOR_AXIS":"6925.338","SITE":"AFETR","CLASSIFICATION_TYPE":"U","ELEMENT_SET_NO":"999","NORAD_CAT_ID":"44927","FILE":"3617955","TLE_LINE1":"1 44927U 20001P   22289.81763128  .00001151  00000-0  96169-4 0  9991","TIME_SYSTEM":"UTC","OBJECT_ID":"2020-001P","REF_FRAME":"TEME","RCS_SIZE":"LARGE","MEAN_ANOMALY":"256.8094","MEAN_MOTION_DDOT":"0.0000000000000","COUNTRY_CODE":"US","REV_AT_EPOCH":"15297","CENTER_NAME":"EARTH"},{"MEAN_MOTION_DDOT":"0.0000000000000","MEAN_ANOMALY":"262.6552","REF_FRAME":"TEME","RCS_SIZE":"LARGE","OBJECT_ID":"2020-001Q","TIME_SYSTEM":"UTC","CENTER_NAME":"EARTH","REV_AT_EPOCH":"15297","COUNTRY_CODE":"US","APOAPSIS":"548.168","ECCENTRICITY":"0.00013270","MEAN_ELEMENT_THEORY":"SGP4","TLE_LINE1":"1 44928U 20001Q   22289.81395455 -.00000530  00000-0 -16681-4 0  9999","FILE":"3617955","ELEMENT_SET_NO":"999","NORAD_CAT_ID":"44928","CLASSIFICATION_TYPE":"U","SEMIMAJOR_AXIS":"6925.384","SITE":"AFETR","MEAN_MOTION_DOT":"-0.00000530","MEAN_MOTION":"15.06388330","DECAY_DATE":null,"LAUNCH_DATE":"2020-01-07","TLE_LINE2":"2 44928  53.0556 152.6335 0001327  97.4588 262.6552 15.06388330152971","PERIAPSIS":"546.330","OBJECT_TYPE":"PAYLOAD","EPHEMERIS_TYPE":"0","RA_OF_ASC_NODE":"152.6335","ARG_OF_PERICENTER":"97.4588","BSTAR":"-0.00001668100000","EPOCH":"2022-10-16T19:32:05.673120","INCLINATION":"53.0556","GP_ID":"215344715","OBJECT_NAME":"STARLINK-1119","PERIOD":"95.593"},{"CENTER_NAME":"EARTH","REV_AT_EPOCH":"15296","COUNTRY_CODE":"US","MEAN_MOTION_DDOT":"0.0000000000000","MEAN_ANOMALY":"258.6282","REF_FRAME":"TEME","RCS_SIZE":"LARGE","OBJECT_ID":"2020-001R","TIME_SYSTEM":"UTC","TLE_LINE1":"1 44929U 20001R   22289.79920422 -.00001202  00000-0 -61798-4 0  9991","FILE":"3617955","NORAD_CAT_ID":"44929","ELEMENT_SET_NO":"999","CLASSIFICATION_TYPE":"U","SITE":"AFETR","SEMIMAJOR_AXIS":"6925.357","ECCENTRICITY":"0.00014010","APOAPSIS":"548.192","MEAN_ELEMENT_THEORY":"SGP4","TLE_LINE2":"2 44929  53.0541 152.7008 0001401 101.4865 258.6282 15.06397407152960","PERIAPSIS":"546.251","OBJECT_TYPE":"PAYLOAD","EPHEMERIS_TYPE":"0","MEAN_MOTION_DOT":"-0.00001202","MEAN_MOTION":"15.06397407","DECAY_DATE":null,"LAUNCH_DATE":"2020-01-07","INCLINATION":"53.0541","OBJECT_NAME":"STARLINK-1121","GP_ID":"215344965","PERIOD":"95.592","RA_OF_ASC_NODE":"152.7008","ARG_OF_PERICENTER":"101.4865","BSTAR":"-0.00006179800000","EPOCH":"2022-10-16T19:10:51.244608"},{"REV_AT_EPOCH":"15297","COUNTRY_CODE":"US","CENTER_NAME":"EARTH","OBJECT_ID":"2020-001S","TIME_SYSTEM":"UTC","MEAN_ANOMALY":"257.2608","MEAN_MOTION_DDOT":"0.0000000000000","RCS_SIZE":"LARGE","REF_FRAME":"TEME","CLASSIFICATION_TYPE":"U","SEMIMAJOR_AXIS":"6925.369","SITE":"AFETR","FILE":"3617955","TLE_LINE1":"1 44930U 20001S   22289.83237417 -.00000010  00000-0  18238-4 0  9999","ELEMENT_SET_NO":"999","NORAD_CAT_ID":"44930","MEAN_ELEMENT_THEORY":"SGP4","APOAPSIS":"548.064","ECCENTRICITY":"0.00011990","PERIAPSIS":"546.404","OBJECT_TYPE":"PAYLOAD","EPHEMERIS_TYPE":"0","TLE_LINE2":"2 44930  53.0563 152.5677 0001199 102.8515 257.2608 15.06393324152979","DECAY_DATE":null,"LAUNCH_DATE":"2020-01-07","MEAN_MOTION_DOT":"-0.00000010","MEAN_MOTION":"15.06393324","GP_ID":"215343715","OBJECT_NAME":"STARLINK-1123","PERIOD":"95.593","INCLINATION":"53.0563","BSTAR":"0.00001823800000","ARG_OF_PERICENTER":"102.8515","EPOCH":"2022-10-16T19:58:37.128288","RA_OF_ASC_NODE":"152.5677"},{"REV_AT_EPOCH":"15384","COUNTRY_CODE":"US","CENTER_NAME":"EARTH","OBJECT_ID":"2020-001T","TIME_SYSTEM":"UTC","MEAN_MOTION_DDOT":"0.0000000000000","MEAN_ANOMALY":"264.5731","RCS_SIZE":"LARGE","REF_FRAME":"TEME","CLASSIFICATION_TYPE":"U","SEMIMAJOR_AXIS":"6912.843","SITE":"AFETR","TLE_LINE1":"1 44931U 20001T   22289.82243044  .00001229  00000-0  91343-4 0  9992","FILE":"3617955","ELEMENT_SET_NO":"999","NORAD_CAT_ID":"44931","MEAN_ELEMENT_THEORY":"SGP4","ECCENTRICITY":"0.00013860","APOAPSIS":"535.666","PERIAPSIS":"533.750","OBJECT_TYPE":"PAYLOAD","EPHEMERIS_TYPE":"0","TLE_LINE2":"2 44931  53.0528 143.6650 0001386  95.5418 264.5731 15.10489472153841","DECAY_DATE":null,"LAUNCH_DATE":"2020-01-07","MEAN_MOTION_DOT":"0.00001229","MEAN_MOTION":"15.10489472","OBJECT_NAME":"STARLINK-1128","GP_ID":"215343965","PERIOD":"95.333","INCLINATION":"53.0528","BSTAR":"0.00009134300000","ARG_OF_PERICENTER":"95.5418","EPOCH":"2022-10-16T19:44:17.990016","RA_OF_ASC_NODE":"143.6650"}];
